start=new Date('2022-06-09T00:00:00.000Z').valueOf();
sats=[{"CENTER_NAME":"EARTH","TLE_LINE2":"2 50835  53.2147 210.3479 0002525  35.1262 324.9896 15.08849056 23400","GP_ID":"205635794","SITE":"AFETR","LAUNCH_DATE":"2022-01-06","EPHEMERIS_TYPE":"0","INCLINATION":"53.2147","OBJECT_TYPE":"PAYLOAD","MEAN_ANOMALY":"324.9896","PERIAPSIS":"537.971","MEAN_MOTION":"15.08849056","ECCENTRICITY":"0.00025250","TIME_SYSTEM":"UTC","NORAD_CAT_ID":"50835","TLE_LINE1":"1 50835U 22001AJ  22159.45230856 -.00000060  00000-0  14370-4 0  9994","MEAN_MOTION_DDOT":"0.0000000000000","SEMIMAJOR_AXIS":"6917.853","RCS_SIZE":"LARGE","MEAN_MOTION_DOT":"-0.00000060","EPOCH":"2022-06-08T10:51:19.459584","RA_OF_ASC_NODE":"210.3479","ELEMENT_SET_NO":"999","APOAPSIS":"541.464","MEAN_ELEMENT_THEORY":"SGP4","OBJECT_NAME":"STARLINK-3310","BSTAR":"0.00001437000000","REF_FRAME":"TEME","DECAY_DATE":null,"REV_AT_EPOCH":"2340","OBJECT_ID":"2022-001AJ","FILE":"3485745","ARG_OF_PERICENTER":"35.1262","PERIOD":"95.437","COUNTRY_CODE":"US","CLASSIFICATION_TYPE":"U"},{"REV_AT_EPOCH":"2330","REF_FRAME":"TEME","DECAY_DATE":null,"OBJECT_ID":"2022-001AK","COUNTRY_CODE":"US","FILE":"3485745","ARG_OF_PERICENTER":"28.4436","PERIOD":"95.438","CLASSIFICATION_TYPE":"U","TLE_LINE1":"1 50836U 22001AK  22159.46335470  .00000354  00000-0  40385-4 0  9994","EPOCH":"2022-06-08T11:07:13.846080","RCS_SIZE":"LARGE","SEMIMAJOR_AXIS":"6917.888","MEAN_MOTION_DOT":"0.00000354","RA_OF_ASC_NODE":"210.2947","ELEMENT_SET_NO":"999","MEAN_MOTION_DDOT":"0.0000000000000","APOAPSIS":"541.767","MEAN_ELEMENT_THEORY":"SGP4","BSTAR":"0.00004038500000","OBJECT_NAME":"STARLINK-3330","PERIAPSIS":"537.739","MEAN_ANOMALY":"331.6714","ECCENTRICITY":"0.00029110","MEAN_MOTION":"15.08837589","TIME_SYSTEM":"UTC","NORAD_CAT_ID":"50836","TLE_LINE2":"2 50836  53.2169 210.2947 0002911  28.4436 331.6714 15.08837589 23302","CENTER_NAME":"EARTH","SITE":"AFETR","GP_ID":"205637046","EPHEMERIS_TYPE":"0","LAUNCH_DATE":"2022-01-06","OBJECT_TYPE":"PAYLOAD","INCLINATION":"53.2169"},{"CLASSIFICATION_TYPE":"U","COUNTRY_CODE":"US","FILE":"3485745","PERIOD":"95.438","ARG_OF_PERICENTER":"45.5206","OBJECT_ID":"2022-001AL","REV_AT_EPOCH":"2355","DECAY_DATE":null,"REF_FRAME":"TEME","BSTAR":"-0.00003846200000","OBJECT_NAME":"STARLINK-3318","APOAPSIS":"541.348","MEAN_ELEMENT_THEORY":"SGP4","RCS_SIZE":"LARGE","SEMIMAJOR_AXIS":"6917.890","MEAN_MOTION_DOT":"-0.00000900","RA_OF_ASC_NODE":"200.1830","EPOCH":"2022-06-08T11:45:38.993760","ELEMENT_SET_NO":"999","MEAN_MOTION_DDOT":"0.0000000000000","TLE_LINE1":"1 50837U 22001AL  22159.49003465 -.00000900  00000-0 -38462-4 0  9996","NORAD_CAT_ID":"50837","TIME_SYSTEM":"UTC","ECCENTRICITY":"0.00023030","MEAN_MOTION":"15.08836779","MEAN_ANOMALY":"314.5974","PERIAPSIS":"538.162","OBJECT_TYPE":"PAYLOAD","INCLINATION":"53.2191","LAUNCH_DATE":"2022-01-06","EPHEMERIS_TYPE":"0","SITE":"AFETR","GP_ID":"205636794","TLE_LINE2":"2 50837  53.2191 200.1830 0002303  45.5206 314.5974 15.08836779 23552","CENTER_NAME":"EARTH"},{"TLE_LINE1":"1 50838U 22001AM  22159.56272319 -.00000479  00000-0 -11989-4 0  9997","ELEMENT_SET_NO":"999","RCS_SIZE":"LARGE","SEMIMAJOR_AXIS":"6917.915","MEAN_MOTION_DOT":"-0.00000479","EPOCH":"2022-06-08T13:30:19.283616","RA_OF_ASC_NODE":"209.8575","MEAN_MOTION_DDOT":"0.0000000000000","MEAN_ELEMENT_THEORY":"SGP4","APOAPSIS":"541.636","BSTAR":"-0.00001198900000","OBJECT_NAME":"STARLINK-3322","REV_AT_EPOCH":"2462","REF_FRAME":"TEME","DECAY_DATE":null,"OBJECT_ID":"2022-001AM","COUNTRY_CODE":"US","ARG_OF_PERICENTER":"27.0924","PERIOD":"95.438","FILE":"3486159","CLASSIFICATION_TYPE":"U","TLE_LINE2":"2 50838  53.2166 209.8575 0002683  27.0924 333.0208 15.08828613 24623","CENTER_NAME":"EARTH","SITE":"AFETR","GP_ID":"205643767","EPHEMERIS_TYPE":"0","LAUNCH_DATE":"2022-01-06","OBJECT_TYPE":"PAYLOAD","INCLINATION":"53.2166","MEAN_ANOMALY":"333.0208","PERIAPSIS":"537.924","ECCENTRICITY":"0.00026830","MEAN_MOTION":"15.08828613","TIME_SYSTEM":"UTC","NORAD_CAT_ID":"50838"},{"INCLINATION":"53.2150","OBJECT_TYPE":"PAYLOAD","LAUNCH_DATE":"2022-01-06","EPHEMERIS_TYPE":"0","GP_ID":"205636295","SITE":"AFETR","CENTER_NAME":"EARTH","TLE_LINE2":"2 50839  53.2150 210.3954 0002895  35.8266 324.2920 15.08842104 23393","NORAD_CAT_ID":"50839","TIME_SYSTEM":"UTC","MEAN_MOTION":"15.08842104","ECCENTRICITY":"0.00028950","MEAN_ANOMALY":"324.2920","PERIAPSIS":"537.736","OBJECT_NAME":"STARLINK-3320","BSTAR":"0.00001181100000","APOAPSIS":"541.742","MEAN_ELEMENT_THEORY":"SGP4","MEAN_MOTION_DDOT":"0.0000000000000","SEMIMAJOR_AXIS":"6917.874","RCS_SIZE":"LARGE","EPOCH":"2022-06-08T10:35:25.849824","RA_OF_ASC_NODE":"210.3954","MEAN_MOTION_DOT":"-0.00000101","ELEMENT_SET_NO":"999","TLE_LINE1":"1 50839U 22001AN  22159.44127141 -.00000101  00000-0  11811-4 0  9992","CLASSIFICATION_TYPE":"U","FILE":"3485745","ARG_OF_PERICENTER":"35.8266","PERIOD":"95.437","COUNTRY_CODE":"US","OBJECT_ID":"2022-001AN","DECAY_DATE":null,"REF_FRAME":"TEME","REV_AT_EPOCH":"2339"},{"INCLINATION":"53.2159","OBJECT_TYPE":"PAYLOAD","LAUNCH_DATE":"2022-01-06","EPHEMERIS_TYPE":"0","GP_ID":"205636546","SITE":"AFETR","CENTER_NAME":"EARTH","TLE_LINE2":"2 50840  53.2159 210.1121 0002542  35.4603 324.6557 15.08837962 23406","NORAD_CAT_ID":"50840","TIME_SYSTEM":"UTC","MEAN_MOTION":"15.08837962","ECCENTRICITY":"0.00025420","PERIAPSIS":"537.993","MEAN_ANOMALY":"324.6557","OBJECT_NAME":"STARLINK-3295","BSTAR":"-0.00000178070000","MEAN_ELEMENT_THEORY":"SGP4","APOAPSIS":"541.510","MEAN_MOTION_DDOT":"0.0000000000000","ELEMENT_SET_NO":"999","RCS_SIZE":"LARGE","SEMIMAJOR_AXIS":"6917.887","MEAN_MOTION_DOT":"-0.00000317","RA_OF_ASC_NODE":"210.1121","EPOCH":"2022-06-08T12:05:31.330176","TLE_LINE1":"1 50840U 22001AP  22159.50383484 -.00000317  00000-0 -17807-5 0  9997","CLASSIFICATION_TYPE":"U","ARG_OF_PERICENTER":"35.4603","PERIOD":"95.438","FILE":"3485745","COUNTRY_CODE":"US","OBJECT_ID":"2022-001AP","DECAY_DATE":null,"REF_FRAME":"TEME","REV_AT_EPOCH":"2340"},{"BSTAR":"0.00001926900000","OBJECT_NAME":"STARLINK-3300","APOAPSIS":"541.505","MEAN_ELEMENT_THEORY":"SGP4","RCS_SIZE":"LARGE","EPOCH":"2022-06-08T13:56:47.907456","SEMIMAJOR_AXIS":"6917.876","MEAN_MOTION_DOT":"0.00000018","RA_OF_ASC_NODE":"209.7704","ELEMENT_SET_NO":"999","MEAN_MOTION_DDOT":"0.0000000000000","TLE_LINE1":"1 50841U 22001AQ  22159.58111004  .00000018  00000-0  19269-4 0  9992","CLASSIFICATION_TYPE":"U","COUNTRY_CODE":"US","FILE":"3485745","ARG_OF_PERICENTER":"39.9340","PERIOD":"95.437","OBJECT_ID":"2022-001AQ","REV_AT_EPOCH":"2342","REF_FRAME":"TEME","DECAY_DATE":null,"OBJECT_TYPE":"PAYLOAD","INCLINATION":"53.2168","LAUNCH_DATE":"2022-01-06","EPHEMERIS_TYPE":"0","SITE":"AFETR","GP_ID":"205637295","TLE_LINE2":"2 50841  53.2168 209.7704 0002550  39.9340 320.1839 15.08841355 23421","CENTER_NAME":"EARTH","NORAD_CAT_ID":"50841","TIME_SYSTEM":"UTC","ECCENTRICITY":"0.00025500","MEAN_MOTION":"15.08841355","MEAN_ANOMALY":"320.1839","PERIAPSIS":"537.977"},{"MEAN_MOTION_DDOT":"0.0000000000000","ELEMENT_SET_NO":"999","RCS_SIZE":"LARGE","SEMIMAJOR_AXIS":"6917.889","EPOCH":"2022-06-08T10:24:50.255136","RA_OF_ASC_NODE":"210.4392","MEAN_MOTION_DOT":"0.00000207","TLE_LINE1":"1 50842U 22001AR  22159.43391499  .00000207  00000-0  31139-4 0  9995","OBJECT_NAME":"STARLINK-3302","BSTAR":"0.00003113900000","MEAN_ELEMENT_THEORY":"SGP4","APOAPSIS":"541.554","OBJECT_ID":"2022-001AR","REF_FRAME":"TEME","DECAY_DATE":null,"REV_AT_EPOCH":"2339","CLASSIFICATION_TYPE":"U","PERIOD":"95.438","ARG_OF_PERICENTER":"34.8672","FILE":"3485745","COUNTRY_CODE":"US","GP_ID":"205636045","SITE":"AFETR","CENTER_NAME":"EARTH","TLE_LINE2":"2 50842  53.2166 210.4392 0002601  34.8672 325.2490 15.08837115 23395","INCLINATION":"53.2166","OBJECT_TYPE":"PAYLOAD","LAUNCH_DATE":"2022-01-06","EPHEMERIS_TYPE":"0","MEAN_MOTION":"15.08837115","ECCENTRICITY":"0.00026010","MEAN_ANOMALY":"325.2490","PERIAPSIS":"537.955","NORAD_CAT_ID":"50842","TIME_SYSTEM":"UTC"},{"OBJECT_ID":"2022-001AS","REV_AT_EPOCH":"2340","DECAY_DATE":null,"REF_FRAME":"TEME","CLASSIFICATION_TYPE":"U","COUNTRY_CODE":"US","FILE":"3485745","PERIOD":"95.438","ARG_OF_PERICENTER":"36.1877","RA_OF_ASC_NODE":"210.3440","RCS_SIZE":"LARGE","SEMIMAJOR_AXIS":"6917.884","MEAN_MOTION_DOT":"-0.00000083","EPOCH":"2022-06-08T10:56:37.947264","ELEMENT_SET_NO":"999","MEAN_MOTION_DDOT":"0.0000000000000","TLE_LINE1":"1 50843U 22001AS  22159.45599476 -.00000083  00000-0  12899-4 0  9998","BSTAR":"0.00001289900000","OBJECT_NAME":"STARLINK-3325","APOAPSIS":"541.648","MEAN_ELEMENT_THEORY":"SGP4","ECCENTRICITY":"0.00027450","MEAN_MOTION":"15.08838725","PERIAPSIS":"537.850","MEAN_ANOMALY":"323.9301","NORAD_CAT_ID":"50843","TIME_SYSTEM":"UTC","SITE":"AFETR","GP_ID":"205635795","TLE_LINE2":"2 50843  53.2166 210.3440 0002745  36.1877 323.9301 15.08838725 23406","CENTER_NAME":"EARTH","OBJECT_TYPE":"PAYLOAD","INCLINATION":"53.2166","LAUNCH_DATE":"2022-01-06","EPHEMERIS_TYPE":"0"},{"INCLINATION":"53.2181","OBJECT_TYPE":"PAYLOAD","LAUNCH_DATE":"2022-01-06","EPHEMERIS_TYPE":"0","GP_ID":"205637047","SITE":"AFETR","CENTER_NAME":"EARTH","TLE_LINE2":"2 50844  53.2181 209.8917 0002458  33.7998 326.3151 15.08835082 23429","NORAD_CAT_ID":"50844","TIME_SYSTEM":"UTC","MEAN_MOTION":"15.08835082","ECCENTRICITY":"0.00024580","MEAN_ANOMALY":"326.3151","PERIAPSIS":"538.060","OBJECT_NAME":"STARLINK-3326","BSTAR":"0.00001601000000","MEAN_ELEMENT_THEORY":"SGP4","APOAPSIS":"541.461","MEAN_MOTION_DDOT":"0.0000000000000","ELEMENT_SET_NO":"999","SEMIMAJOR_AXIS":"6917.895","RCS_SIZE":"LARGE","EPOCH":"2022-06-08T13:19:42.377376","RA_OF_ASC_NODE":"209.8917","MEAN_MOTION_DOT":"-0.00000034","TLE_LINE1":"1 50844U 22001AT  22159.55535159 -.00000034  00000-0  16010-4 0  9993","CLASSIFICATION_TYPE":"U","ARG_OF_PERICENTER":"33.7998","PERIOD":"95.438","FILE":"3485745","COUNTRY_CODE":"US","OBJECT_ID":"2022-001AT","DECAY_DATE":null,"REF_FRAME":"TEME","REV_AT_EPOCH":"2342"}];
